{
  "type": "FeatureCollection",
  "features": [
    {
      "type": "Feature",
      "properties": {
        "norad_id": 37238,
        "name": "INTELSAT 17 (IS-17)",
        "group": "intelsat",
        "lat": 0.03995195253310299,
        "lon": 135.51362751311223,
        "alt_km": 35796.94054457261,
        "timestamp": "2025-12-20T22:39:10.313228+00:00",
        "meta_object_name": "INTELSAT 17 (IS-17)",
        "meta_object_id": "2010-065B",
        "meta_epoch": "2025-12-20T13:03:16.843680",
        "meta_mean_motion": 1.00271443,
        "meta_eccentricity": 0.00028105,
        "meta_inclination": 0.03,
        "meta_ra_of_asc_node": 68.8387,
        "meta_arg_of_pericenter": 221.9442,
        "meta_mean_anomaly": 60.3868,
        "meta_ephemeris_type": 0,
        "meta_classification_type": "U",
        "meta_norad_cat_id": 37238,
        "meta_element_set_no": 999,
        "meta_rev_at_epoch": 5145,
        "meta_bstar": 0,
        "meta_mean_motion_dot": 0,
        "meta_mean_motion_ddot": 0,
        "tle_line1": "1 37238U 10065B   25354.54394495  .00000000  00000+0  00000+0 0  9995",
        "tle_line2": "2 37238   0.0300  68.8387 0002810 221.9442  60.3868  1.00271443 51451"
      },
      "geometry": {
        "type": "Point",
        "coordinates": [
          135.51362751311223,
          0.03995195253310299
        ]
      }
    },
    {
      "type": "Feature",
      "properties": {
        "norad_id": 37392,
        "name": "INTELSAT 28 (IS-28)",
        "group": "intelsat",
        "lat": -0.9679818068183674,
        "lon": 37.90075387813358,
        "alt_km": 35795.76132105755,
        "timestamp": "2025-12-20T22:39:10.313239+00:00",
        "meta_object_name": "INTELSAT 28 (IS-28)",
        "meta_object_id": "2011-016A",
        "meta_epoch": "2025-12-20T06:13:56.324352",
        "meta_mean_motion": 1.00269977,
        "meta_eccentricity": 0.00036834,
        "meta_inclination": 1.3429,
        "meta_ra_of_asc_node": 84.976,
        "meta_arg_of_pericenter": 187.7654,
        "meta_mean_anomaly": 238.1459,
        "meta_ephemeris_type": 0,
        "meta_classification_type": "U",
        "meta_norad_cat_id": 37392,
        "meta_element_set_no": 999,
        "meta_rev_at_epoch": 5149,
        "meta_bstar": 0,
        "meta_mean_motion_dot": -2.02e-06,
        "meta_mean_motion_ddot": 0,
        "tle_line1": "1 37392U 11016A   25354.25967968 -.00000202  00000+0  00000+0 0  9997",
        "tle_line2": "2 37392   1.3429  84.9760 0003683 187.7654 238.1459  1.00269977 51499"
      },
      "geometry": {
        "type": "Point",
        "coordinates": [
          37.90075387813358,
          -0.9679818068183674
        ]
      }
    },
    {
      "type": "Feature",
      "properties": {
        "norad_id": 37834,
        "name": "INTELSAT 18 (IS-18)",
        "group": "intelsat",
        "lat": -0.03353821015695598,
        "lon": -110.45603868150947,
        "alt_km": 35780.21760100764,
        "timestamp": "2025-12-20T22:39:10.313251+00:00",
        "meta_object_name": "INTELSAT 18 (IS-18)",
        "meta_object_id": "2011-056A",
        "meta_epoch": "2025-12-20T08:45:38.947968",
        "meta_mean_motion": 1.0027236,
        "meta_eccentricity": 0.00016644,
        "meta_inclination": 0.0337,
        "meta_ra_of_asc_node": 280.0178,
        "meta_arg_of_pericenter": 6.1929,
        "meta_mean_anomaly": 114.4011,
        "meta_ephemeris_type": 0,
        "meta_classification_type": "U",
        "meta_norad_cat_id": 37834,
        "meta_element_set_no": 999,
        "meta_rev_at_epoch": 5201,
        "meta_bstar": 0,
        "meta_mean_motion_dot": 7.7e-07,
        "meta_mean_motion_ddot": 0,
        "tle_line1": "1 37834U 11056A   25354.36503412  .00000077  00000+0  00000+0 0  9993",
        "tle_line2": "2 37834   0.0337 280.0178 0001664   6.1929 114.4011  1.00272360 52011"
      },
      "geometry": {
        "type": "Point",
        "coordinates": [
          -110.45603868150947,
          -0.03353821015695598
        ]
      }
    },
    {
      "type": "Feature",
      "properties": {
        "norad_id": 38098,
        "name": "INTELSAT 22 (IS-22)",
        "group": "intelsat",
        "lat": 0.03117118654369808,
        "lon": 141.6318349939857,
        "alt_km": 35791.906223684644,
        "timestamp": "2025-12-20T22:39:10.313261+00:00",
        "meta_object_name": "INTELSAT 22 (IS-22)",
        "meta_object_id": "2012-011A",
        "meta_epoch": "2025-12-20T10:08:56.317920",
        "meta_mean_motion": 1.00270562,
        "meta_eccentricity": 0.00018059,
        "meta_inclination": 0.0147,
        "meta_ra_of_asc_node": 41.4963,
        "meta_arg_of_pericenter": 236.1011,
        "meta_mean_anomaly": 35.9883,
        "meta_ephemeris_type": 0,
        "meta_classification_type": "U",
        "meta_norad_cat_id": 38098,
        "meta_element_set_no": 999,
        "meta_rev_at_epoch": 539,
        "meta_bstar": 0,
        "meta_mean_motion_dot": -3.5e-07,
        "meta_mean_motion_ddot": 0,
        "tle_line1": "1 38098U 12011A   25354.42287405 -.00000035  00000+0  00000+0 0  9991",
        "tle_line2": "2 38098   0.0147  41.4963 0001805 236.1011  35.9883  1.00270562  5393"
      },
      "geometry": {
        "type": "Point",
        "coordinates": [
          141.6318349939857,
          0.03117118654369808
        ]
      }
    },
    {
      "type": "Feature",
      "properties": {
        "norad_id": 38356,
        "name": "INTELSAT 19 (IS-19)",
        "group": "intelsat",
        "lat": -0.03149726523958949,
        "lon": -124.46244278058654,
        "alt_km": 35776.187677137306,
        "timestamp": "2025-12-20T22:39:10.313272+00:00",
        "meta_object_name": "INTELSAT 19 (IS-19)",
        "meta_object_id": "2012-030A",
        "meta_epoch": "2025-12-20T11:32:38.877792",
        "meta_mean_motion": 1.00271305,
        "meta_eccentricity": 0.00027428,
        "meta_inclination": 0.0116,
        "meta_ra_of_asc_node": 4.2995,
        "meta_arg_of_pericenter": 261.5808,
        "meta_mean_anomaly": 162.5958,
        "meta_ephemeris_type": 0,
        "meta_classification_type": "U",
        "meta_norad_cat_id": 38356,
        "meta_element_set_no": 999,
        "meta_rev_at_epoch": 4865,
        "meta_bstar": 0,
        "meta_mean_motion_dot": -3.3e-07,
        "meta_mean_motion_ddot": 0,
        "tle_line1": "1 38356U 12030A   25354.48100553 -.00000033  00000+0  00000+0 0  9991",
        "tle_line2": "2 38356   0.0116   4.2995 0002742 261.5808 162.5958  1.00271305 48657"
      },
      "geometry": {
        "type": "Point",
        "coordinates": [
          -124.46244278058654,
          -0.03149726523958949
        ]
      }
    },
    {
      "type": "Feature",
      "properties": {
        "norad_id": 38740,
        "name": "INTELSAT 20 (IS-20)",
        "group": "intelsat",
        "lat": 0.005920688878378751,
        "lon": 138.01538596398598,
        "alt_km": 35776.32102312491,
        "timestamp": "2025-12-20T22:39:10.313283+00:00",
        "meta_object_name": "INTELSAT 20 (IS-20)",
        "meta_object_id": "2012-043A",
        "meta_epoch": "2025-12-20T10:07:56.413344",
        "meta_mean_motion": 1.00270417,
        "meta_eccentricity": 0.00033818,
        "meta_inclination": 0.0114,
        "meta_ra_of_asc_node": 99.7077,
        "meta_arg_of_pericenter": 82.6812,
        "meta_mean_anomaly": 127.3428,
        "meta_ephemeris_type": 0,
        "meta_classification_type": "U",
        "meta_norad_cat_id": 38740,
        "meta_element_set_no": 999,
        "meta_rev_at_epoch": 4895,
        "meta_bstar": 0,
        "meta_mean_motion_dot": 0,
        "meta_mean_motion_ddot": 0,
        "tle_line1": "1 38740U 12043A   25354.42218071  .00000000  00000+0  00000+0 0  9994",
        "tle_line2": "2 38740   0.0114  99.7077 0003381  82.6812 127.3428  1.00270417 48956"
      },
      "geometry": {
        "type": "Point",
        "coordinates": [
          138.01538596398598,
          0.005920688878378751
        ]
      }
    },
    {
      "type": "Feature",
      "properties": {
        "norad_id": 38749,
        "name": "INTELSAT 21 (IS-21)",
        "group": "intelsat",
        "lat": 0.026857125953795302,
        "lon": 11.571306360965728,
        "alt_km": 35788.258297318775,
        "timestamp": "2025-12-20T22:39:10.313294+00:00",
        "meta_object_name": "INTELSAT 21 (IS-21)",
        "meta_object_id": "2012-045A",
        "meta_epoch": "2025-12-20T11:14:35.030400",
        "meta_mean_motion": 1.00272376,
        "meta_eccentricity": 0.00014937,
        "meta_inclination": 0.0253,
        "meta_ra_of_asc_node": 289.0499,
        "meta_arg_of_pericenter": 331.1928,
        "meta_mean_anomaly": 299.7052,
        "meta_ephemeris_type": 0,
        "meta_classification_type": "U",
        "meta_norad_cat_id": 38749,
        "meta_element_set_no": 999,
        "meta_rev_at_epoch": 4873,
        "meta_bstar": 0,
        "meta_mean_motion_dot": -2.61e-06,
        "meta_mean_motion_ddot": 0,
        "tle_line1": "1 38749U 12045A   25354.46846100 -.00000261  00000+0  00000+0 0  9999",
        "tle_line2": "2 38749   0.0253 289.0499 0001493 331.1928 299.7052  1.00272376 48732"
      },
      "geometry": {
        "type": "Point",
        "coordinates": [
          11.571306360965728,
          0.026857125953795302
        ]
      }
    }
  ]
}